HAWK-2C                 
1 47502U 21006CT  26068.67595434  .00008129  00000+0  25493-3 0  9997
2 47502  97.2417 114.9961 0006943 184.0877 176.0310 15.33286436284247
STARLINK-32849          
1 62872U 25022U   26068.54508361  .00019327  00000+0  66321-3 0  9992
2 62872  53.1580 130.6007 0001300  92.1741 267.9408 15.30188738 61876
